DMSP 5D-3 F16 (USA 172) 
1 28054U 03048A   26200.85305925 -.00000064  00000+0 -96118-5 0  9992
2 28054  98.9896 224.8963 0007982  59.6833  43.2128 14.14484701174101
METEOSAT-9 (MSG-2)      
1 28912U 05049B   26200.20164044  .00000114  00000+0  00000+0 0  9995
2 28912   9.4322  53.8482 0002395 357.9817   3.4307  1.00274349  7322
DMSP 5D-3 F17 (USA 191) 
1 29522U 06050A   26200.83826255 -.00000025  00000+0  93939-5 0  9995
2 29522  98.7389 206.7417 0009456 329.0074  31.0541 14.14996271 17042
FENGYUN 3A              
1 32958U 08026A   26200.82209507  .00000025  00000+0  32616-4 0  9994
2 32958  98.6885 141.0459 0009497  39.7759 320.4112 14.19577104940034
EWS-G3 (GOES 14)        
1 35491U 09033A   26200.85836859 -.00000363  00000+0  00000+0 0  9990
2 35491   1.7720  82.6390 0002108  39.2156 246.9395  1.00096122  6911
DMSP 5D-3 F18 (USA 210) 
1 35951U 09057A   26200.88239115  .00000164  00000+0  10812-3 0  9996
2 35951  98.9060 181.5842 0011505 152.5750 207.6033 14.14913729864216
EWS-G2 (GOES 15)        
1 36411U 10008A   26200.84675521  .00000019  00000+0  00000+0 0  9990
2 36411   1.3655  82.4124 0005434  54.4587 168.8503  1.00269496 59964
COMS 1                  
1 36744U 10032A   26200.46690797 -.00000211  00000+0  00000+0 0  9991
2 36744   4.8863  74.9675 0011395  15.0539 320.3988  0.99166959 51402
FENGYUN 3B              
1 37214U 10059A   26200.84387183  .00000095  00000+0  72394-4 0  9996
2 37214  98.9598 246.9939 0023177  94.1322  15.8313 14.14848198812044
SUOMI NPP               
1 37849U 11061A   26200.83455071  .00000019  00000+0  30113-4 0  9994
2 37849  98.7955 141.4888 0000979 192.7918 167.3233 14.19523169763071
METEOSAT-10 (MSG-3)     
1 38552U 12035B   26200.83414602 -.00000013  00000+0  00000+0 0  9995
2 38552   4.7472  60.8597 0001377  17.7737 159.3188  1.00272284 51180
METOP-B                 
1 38771U 12049A   26200.85096419  .00000034  00000+0  35394-4 0  9998
2 38771  98.6486 251.6955 0001250 229.9230 130.1838 14.21447199717907
INSAT-3D                
1 39216U 13038B   26200.77039624 -.00000343  00000+0  00000+0 0  9993
2 39216   2.0084  82.1300 0001007  44.5443 217.7107  1.00273998 47402
FENGYUN 3C              
1 39260U 13052A   26200.90691132  .00000032  00000+0  37352-4 0  9990
2 39260  98.5003 173.2834 0013521 291.3924  68.5808 14.15761311663197
METEOR-M 2              
1 40069U 14037A   26200.87685856 -.00000329  00000+0 -13130-3 0  9993
2 40069  98.5141 175.4613 0004839 311.1821  48.8939 14.21469065623962
HIMAWARI-8              
1 40267U 14060A   26200.78378086 -.00000279  00000+0  00000+0 0  9994
2 40267   0.0152  47.5152 0001246 115.2730 197.5966  1.00270366 43088
FENGYUN 2G              
1 40367U 14090A   26200.64000412 -.00000309  00000+0  00000+0 0  9992
2 40367   5.7192  72.4242 0003943 173.6464  21.2039  1.00279249 42329
METEOSAT-11 (MSG-4)     
1 40732U 15034A   26200.83605270  .00000057  00000+0  00000+0 0  9990
2 40732   3.2801  70.8981 0002051 355.1707 181.7937  1.00273308  7547
ELEKTRO-L 2             
1 41105U 15074A   26200.83137269 -.00000124  00000+0  00000+0 0  9993
2 41105   6.7743  70.1224 0000880 225.8143 286.4773  1.00272157 38831
SENTINEL-3A             
1 41335U 16011A   26200.82693734  .00000037  00000+0  33164-4 0  9997
2 41335  98.6233 267.7391 0001317  89.0426 271.0905 14.26740566542719
INSAT-3DR               
1 41752U 16054A   26200.84883521 -.00000080  00000+0  00000+0 0  9991
2 41752   0.0815  89.1189 0010385 180.4405  47.6373  1.00271349 36141
HIMAWARI-9              
1 41836U 16064A   26200.78378086 -.00000278  00000+0  00000+0 0  9992
2 41836   0.0374 240.7556 0002147 289.6962 190.0063  1.00275003 35536
GOES 16                 
1 41866U 16071A   26200.61016971 -.00000095  00000+0  00000+0 0  9994
2 41866   0.4153  85.4573 0000621  78.0271 248.8712  1.00271519 35428
FENGYUN 4A              
1 41882U 16077A   26200.81663704 -.00000362  00000+0  00000+0 0  9999
2 41882   2.4036  79.9132 0008280 159.6242 115.7237  1.00266020 35256
CYGFM05                 
1 41884U 16078A   26200.87148088  .00015836  00000+0  20458-3 0  9995
2 41884  34.9573  43.9264 0005319  88.6074 271.5260 15.57999934533855
CYGFM04                 
1 41885U 16078B   26200.79986979  .00020059  00000+0  21124-3 0  9990
2 41885  34.9331  10.3823 0004234 139.1895 220.9148 15.63274012534107
CYGFM02                 
1 41886U 16078C   26200.79847116  .00025330  00000+0  23327-3 0  9994
2 41886  34.9412   3.9203 0004970 140.4749 219.6342 15.66597334534286
CYGFM01                 
1 41887U 16078D   26200.84543369  .00016426  00000+0  20641-3 0  9996
2 41887  34.9402  44.8834 0005224  80.1375 279.9939 15.58723700533805
CYGFM08                 
1 41888U 16078E   26200.87432411  .00020276  00000+0  22753-3 0  9999
2 41888  34.9437  23.3710 0005978 120.9672 239.1641 15.61638702534088
CYGFM07                 
1 41890U 16078G   26200.83131142  .00020034  00000+0  22396-3 0  9990
2 41890  34.9455  11.9703 0004644 139.0403 221.0672 15.61746801534105
CYGFM03                 
1 41891U 16078H   26200.80255263  .00019463  00000+0  21776-3 0  9994
2 41891  34.9410  14.0906 0004320 120.7282 239.3869 15.61730269534076
